[{"OBJECT_NAME":"TIANMU-1 07","OBJECT_ID":"2023-101A","EPOCH":"2026-03-06T13:47:20.454720","MEAN_MOTION":15.29118809,"ECCENTRICITY":0.00046097,"INCLINATION":97.2728,"RA_OF_ASC_NODE":118.5929,"ARG_OF_PERICENTER":142.4105,"MEAN_ANOMALY":217.7458,"EPHEMERIS_TYPE":0,"CLASSIFICATION_TYPE":"U","NORAD_CAT_ID":57399,"ELEMENT_SET_NO":999,"REV_AT_EPOCH":14596,"BSTAR":0.00029794732,"MEAN_MOTION_DOT":8.352e-5,"MEAN_MOTION_DDOT":0},{"OBJECT_NAME":"STARLINK-31612","OBJECT_ID":"2024-057T","EPOCH":"2026-03-09T09:27:18.256320","MEAN_MOTION":15.27578998,"ECCENTRICITY":0.00017222,"INCLINATION":43,"RA_OF_ASC_NODE":188.7578,"ARG_OF_PERICENTER":286.8576,"MEAN_ANOMALY":73.2087,"EPHEMERIS_TYPE":0,"CLASSIFICATION_TYPE":"U","NORAD_CAT_ID":59337,"ELEMENT_SET_NO":999,"REV_AT_EPOCH":10979,"BSTAR":3.5551606e-5,"MEAN_MOTION_DOT":7.16e-6,"MEAN_MOTION_DDOT":0}]
